{
  "norad_id": 51812,
  "name": "STARLINK-3610",
  "history": [
    {
      "epoch": "2026-03-28T17:07:38.313696Z",
      "apogee_km": 540.5919480629082,
      "perigee_km": 538.8693990121974,
      "latitude_deg": 2.1063851753884777e-05,
      "longitude_deg": 160.67934580654563,
      "height_km": 540.603143178186,
      "semi_major_axis_km": 6917.867673537552,
      "eccentricity": 0.0001245,
      "inclination_deg": 53.2172,
      "raan_deg": 243.7191,
      "arg_perigee_deg": 88.4449,
      "mean_anomaly_deg": 271.6686,
      "mean_motion_rev_day": 15.0884416
    }
  ]
}