{"fetched_at":"2026-03-29T16:36:15Z","count":15609,"tles":[{"name":"STARLINK-3610","line1":"1 51812U 22017AW  26087.71363789 -.00000031  00000+0  16125-4 0  9999","line2":"2 51812  53.2172 243.7191 0001245  88.4449 271.6686 15.08844160226952","category":"Starlink"}]}